[{"OBJECT_NAME":"OTP-2","OBJECT_ID":"2025-052AB","EPOCH":"2026-03-09T15:22:45.676416","MEAN_MOTION":15.22471318,"ECCENTRICITY":0.0007494,"INCLINATION":97.3983,"RA_OF_ASC_NODE":322.5927,"ARG_OF_PERICENTER":139.5012,"MEAN_ANOMALY":220.6784,"EPHEMERIS_TYPE":0,"CLASSIFICATION_TYPE":"U","NORAD_CAT_ID":63235,"ELEMENT_SET_NO":999,"REV_AT_EPOCH":5471,"BSTAR":0.00047808,"MEAN_MOTION_DOT":0.00011014,"MEAN_MOTION_DDOT":0},{"OBJECT_NAME":"NASBSAT-1","OBJECT_ID":"2025-313AT","EPOCH":"2026-03-09T22:27:05.348448","MEAN_MOTION":15.23392986,"ECCENTRICITY":0.00090189,"INCLINATION":97.4003,"RA_OF_ASC_NODE":145.3477,"ARG_OF_PERICENTER":353.1124,"MEAN_ANOMALY":6.9987,"EPHEMERIS_TYPE":0,"CLASSIFICATION_TYPE":"U","NORAD_CAT_ID":67289,"ELEMENT_SET_NO":999,"REV_AT_EPOCH":1086,"BSTAR":0.00068712431,"MEAN_MOTION_DOT":0.00016315,"MEAN_MOTION_DDOT":0}]
